{"type": "FeatureCollection", "features": [ {"type": "Feature", "properties": {"norad_id": 54234, "name": "NOAA 21 (JPSS-2)", "group": "weather", "lat": -11.626097650741615, "lon": -82.30493858083253, "alt_km": 830.437973910105, "timestamp": "2025-12-05T11:32:55.669683+00:00", "meta": {"OBJECT_NAME": "NOAA 21 (JPSS-2)", "OBJECT_ID": "2022-150A", "EPOCH": "2025-12-04T16:59:44.796768", "MEAN_MOTION": 14.19520742, "ECCENTRICITY": 0.0002498, "INCLINATION": 98.745, "RA_OF_ASC_NODE": 275.1171, "ARG_OF_PERICENTER": 53.083, "MEAN_ANOMALY": 307.0575, "EPHEMERIS_TYPE": 0, "CLASSIFICATION_TYPE": "U", "NORAD_CAT_ID": 54234, "ELEMENT_SET_NO": 999, "REV_AT_EPOCH": 15895, "BSTAR": 0.00011877, "MEAN_MOTION_DOT": 2.06e-06, "MEAN_MOTION_DDOT": 0}, "tle": {"line1": "1 54234U 22150A   25338.70815737  .00000206  00000+0  11877-3 0  9991", "line2": "2 54234  98.7450 275.1171 0002498  53.0830 307.0575 14.19520742158959"}}, "geometry": {"type": "Point", "coordinates": [-82.30493858083253, -11.626097650741615]}}, {"type": "Feature", "properties": {"norad_id": 54743, "name": "METEOSAT-12 (MTG-I1)", "group": "weather", "lat": -0.462528934572966, "lon": -112.51799465047011, "alt_km": 35779.03679334987, "timestamp": "2025-12-05T11:32:55.669695+00:00", "meta": {"OBJECT_NAME": "METEOSAT-12 (MTG-I1)", "OBJECT_ID": "2022-170C", "EPOCH": "2025-12-04T05:09:49.421376", "MEAN_MOTION": 1.00273795, "ECCENTRICITY": 0.000153, "INCLINATION": 0.7187, "RA_OF_ASC_NODE": 30.1576, "ARG_OF_PERICENTER": 217.1226, "MEAN_ANOMALY": 263.1859, "EPHEMERIS_TYPE": 0, "CLASSIFICATION_TYPE": "U", "NORAD_CAT_ID": 54743, "ELEMENT_SET_NO": 999, "REV_AT_EPOCH": 1102, "BSTAR": 0, "MEAN_MOTION_DOT": 9e-08, "MEAN_MOTION_DDOT": 0}, "tle": {"line1": "1 54743U 22170C   25338.21515534  .00000009  00000+0  00000+0 0  9999", "line2": "2 54743   0.7187  30.1576 0001530 217.1226 263.1859  1.00273795 11022"}}, "geometry": {"type": "Point", "coordinates": [-112.51799465047011, -0.462528934572966]}}, {"type": "Feature", "properties": {"norad_id": 55973, "name": "TIANMU-1 03", "group": "weather", "lat": -8.82458370333878, "lon": 143.10507427833528, "alt_km": 448.4985537931416, "timestamp": "2025-12-05T11:32:55.669706+00:00", "meta": {"OBJECT_NAME": "TIANMU-1 03", "OBJECT_ID": "2023-039A", "EPOCH": "2025-12-04T16:52:51.842784", "MEAN_MOTION": 15.40568525, "ECCENTRICITY": 0.0004541, "INCLINATION": 97.5103, "RA_OF_ASC_NODE": 141.1326, "ARG_OF_PERICENTER": 84.218, "MEAN_ANOMALY": 275.9583, "EPHEMERIS_TYPE": 0, "CLASSIFICATION_TYPE": "U", "NORAD_CAT_ID": 55973, "ELEMENT_SET_NO": 999, "REV_AT_EPOCH": 15082, "BSTAR": 0.00068481, "MEAN_MOTION_DOT": 0.00027826, "MEAN_MOTION_DDOT": 0}, "tle": {"line1": "1 55973U 23039A   25338.70337781  .00027826  00000+0  68481-3 0  9997", "line2": "2 55973  97.5103 141.1326 0004541  84.2180 275.9583 15.40568525150827"}}, "geometry": {"type": "Point", "coordinates": [143.10507427833528, -8.82458370333878]}}, {"type": "Feature", "properties": {"norad_id": 55974, "name": "TIANMU-1 04", "group": "weather", "lat": 80.04359836445853, "lon": 9.790732126362153, "alt_km": 432.5658233279928, "timestamp": "2025-12-05T11:32:55.669719+00:00", "meta": {"OBJECT_NAME": "TIANMU-1 04", "OBJECT_ID": "2023-039B", "EPOCH": "2025-12-04T17:59:16.766304", "MEAN_MOTION": 15.4090154, "ECCENTRICITY": 0.0005228, "INCLINATION": 97.5035, "RA_OF_ASC_NODE": 140.3744, "ARG_OF_PERICENTER": 80.3624, "MEAN_ANOMALY": 279.8213, "EPHEMERIS_TYPE": 0, "CLASSIFICATION_TYPE": "U", "NORAD_CAT_ID": 55974, "ELEMENT_SET_NO": 999, "REV_AT_EPOCH": 15083, "BSTAR": 0.00069338, "MEAN_MOTION_DOT": 0.00028492, "MEAN_MOTION_DDOT": 0}, "tle": {"line1": "1 55974U 23039B   25338.74949961  .00028492  00000+0  69338-3 0  9993", "line2": "2 55974  97.5035 140.3744 0005228  80.3624 279.8213 15.40901540150832"}}, "geometry": {"type": "Point", "coordinates": [9.790732126362153, 80.04359836445853]}}, {"type": "Feature", "properties": {"norad_id": 55975, "name": "TIANMU-1 05", "group": "weather", "lat": 41.21215609859287, "lon": -31.749285328129055, "alt_km": 438.9394237302131, "timestamp": "2025-12-05T11:32:55.669729+00:00", "meta": {"OBJECT_NAME": "TIANMU-1 05", "OBJECT_ID": "2023-039C", "EPOCH": "2025-12-04T17:48:11.113056", "MEAN_MOTION": 15.40528463, "ECCENTRICITY": 0.0004322, "INCLINATION": 97.5082, "RA_OF_ASC_NODE": 140.8584, "ARG_OF_PERICENTER": 101.2568, "MEAN_ANOMALY": 258.9163, "EPHEMERIS_TYPE": 0, "CLASSIFICATION_TYPE": "U", "NORAD_CAT_ID": 55975, "ELEMENT_SET_NO": 999, "REV_AT_EPOCH": 15081, "BSTAR": 0.00069501, "MEAN_MOTION_DOT": 0.00028205, "MEAN_MOTION_DDOT": 0}, "tle": {"line1": "1 55975U 23039C   25338.74179529  .00028205  00000+0  69501-3 0  9993", "line2": "2 55975  97.5082 140.8584 0004322 101.2568 258.9163 15.40528463150815"}}, "geometry": {"type": "Point", "coordinates": [-31.749285328129055, 41.21215609859287]}}, {"type": "Feature", "properties": {"norad_id": 55976, "name": "TIANMU-1 06", "group": "weather", "lat": 79.79392135437547, "lon": 94.96549954571142, "alt_km": 432.65659413012327, "timestamp": "2025-12-05T11:32:55.669738+00:00", "meta": {"OBJECT_NAME": "TIANMU-1 06", "OBJECT_ID": "2023-039D", "EPOCH": "2025-12-04T18:02:48.111072", "MEAN_MOTION": 15.40954476, "ECCENTRICITY": 0.0004688, "INCLINATION": 97.5092, "RA_OF_ASC_NODE": 141.3274, "ARG_OF_PERICENTER": 96.6895, "MEAN_ANOMALY": 263.4884, "EPHEMERIS_TYPE": 0, "CLASSIFICATION_TYPE": "U", "NORAD_CAT_ID": 55976, "ELEMENT_SET_NO": 999, "REV_AT_EPOCH": 15083, "BSTAR": 0.0006912, "MEAN_MOTION_DOT": 0.0002845, "MEAN_MOTION_DDOT": 0}, "tle": {"line1": "1 55976U 23039D   25338.75194573  .00028450  00000+0  69120-3 0  9990", "line2": "2 55976  97.5092 141.3274 0004688  96.6895 263.4884 15.40954476150834"}}, "geometry": {"type": "Point", "coordinates": [94.96549954571142, 79.79392135437547]}}, {"type": "Feature", "properties": {"norad_id": 56232, "name": "FENGYUN 3G", "group": "weather", "lat": 24.56935545747745, "lon": 62.31276204257466, "alt_km": 399.66151184262253, "timestamp": "2025-12-05T11:32:55.669749+00:00", "meta": {"OBJECT_NAME": "FENGYUN 3G", "OBJECT_ID": "2023-055A", "EPOCH": "2025-12-04T17:55:56.865216", "MEAN_MOTION": 15.52928854, "ECCENTRICITY": 0.0009178, "INCLINATION": 49.995, "RA_OF_ASC_NODE": 268.6785, "ARG_OF_PERICENTER": 110.0756, "MEAN_ANOMALY": 250.12, "EPHEMERIS_TYPE": 0, "CLASSIFICATION_TYPE": "U", "NORAD_CAT_ID": 56232, "ELEMENT_SET_NO": 999, "REV_AT_EPOCH": 14978, "BSTAR": 0.00089698, "MEAN_MOTION_DOT": 0.00056956, "MEAN_MOTION_DDOT": 0}, "tle": {"line1": "1 56232U 23055A   25338.74718594  .00056956  00000+0  89698-3 0  9992", "line2": "2 56232  49.9950 268.6785 0009178 110.0756 250.1200 15.52928854149781"}}, "geometry": {"type": "Point", "coordinates": [62.31276204257466, 24.56935545747745]}}, {"type": "Feature", "properties": {"norad_id": 57166, "name": "METEOR-M2 3", "group": "weather", "lat": 41.770328634858195, "lon": -139.04877123616208, "alt_km": 809.3877039917124, "timestamp": "2025-12-05T11:32:55.669759+00:00", "meta": {"OBJECT_NAME": "METEOR-M2 3", "OBJECT_ID": "2023-091A", "EPOCH": "2025-12-04T18:02:31.695936", "MEAN_MOTION": 14.24024611, "ECCENTRICITY": 0.000434, "INCLINATION": 98.639, "RA_OF_ASC_NODE": 32.4303, "ARG_OF_PERICENTER": 30.3381, "MEAN_ANOMALY": 329.8049, "EPHEMERIS_TYPE": 0, "CLASSIFICATION_TYPE": "U", "NORAD_CAT_ID": 57166, "ELEMENT_SET_NO": 999, "REV_AT_EPOCH": 12684, "BSTAR": 4.9883e-05, "MEAN_MOTION_DOT": 7.1e-07, "MEAN_MOTION_DDOT": 0}, "tle": {"line1": "1 57166U 23091A   25338.75175574  .00000071  00000+0  49883-4 0  9995", "line2": "2 57166  98.6390  32.4303 0004340  30.3381 329.8049 14.24024611126847"}}, "geometry": {"type": "Point", "coordinates": [-139.04877123616208, 41.770328634858195]}}, {"type": "Feature", "properties": {"norad_id": 57399, "name": "TIANMU-1 07", "group": "weather", "lat": 46.87171647323714, "lon": -142.6540332986106, "alt_km": 474.74689881265385, "timestamp": "2025-12-05T11:32:55.669771+00:00", "meta": {"OBJECT_NAME": "TIANMU-1 07", "OBJECT_ID": "2023-101A", "EPOCH": "2025-12-04T17:40:52.877568", "MEAN_MOTION": 15.27895353, "ECCENTRICITY": 0.0005633, "INCLINATION": 97.289, "RA_OF_ASC_NODE": 28.7641, "ARG_OF_PERICENTER": 101.7091, "MEAN_ANOMALY": 258.4781, "EPHEMERIS_TYPE": 0, "CLASSIFICATION_TYPE": "U", "NORAD_CAT_ID": 57399, "ELEMENT_SET_NO": 999, "REV_AT_EPOCH": 13193, "BSTAR": 0.00057651, "MEAN_MOTION_DOT": 0.00015649, "MEAN_MOTION_DDOT": 0}, "tle": {"line1": "1 57399U 23101A   25338.73672312  .00015649  00000+0  57651-3 0  9993", "line2": "2 57399  97.2890  28.7641 0005633 101.7091 258.4781 15.27895353131934"}}, "geometry": {"type": "Point", "coordinates": [-142.6540332986106, 46.87171647323714]}}, {"type": "Feature", "properties": {"norad_id": 57400, "name": "TIANMU-1 08", "group": "weather", "lat": -45.008111187821235, "lon": 36.64654948758612, "alt_km": 493.28247272126464, "timestamp": "2025-12-05T11:32:55.669781+00:00", "meta": {"OBJECT_NAME": "TIANMU-1 08", "OBJECT_ID": "2023-101B", "EPOCH": "2025-12-04T18:27:28.016928", "MEAN_MOTION": 15.27879754, "ECCENTRICITY": 0.0007476, "INCLINATION": 97.2878, "RA_OF_ASC_NODE": 28.5955, "ARG_OF_PERICENTER": 106.2708, "MEAN_ANOMALY": 253.9354, "EPHEMERIS_TYPE": 0, "CLASSIFICATION_TYPE": "U", "NORAD_CAT_ID": 57400, "ELEMENT_SET_NO": 999, "REV_AT_EPOCH": 13193, "BSTAR": 0.00057632, "MEAN_MOTION_DOT": 0.00015641, "MEAN_MOTION_DDOT": 0}, "tle": {"line1": "1 57400U 23101B   25338.76907427  .00015641  00000+0  57632-3 0  9998", "line2": "2 57400  97.2878  28.5955 0007476 106.2708 253.9354 15.27879754131934"}}, "geometry": {"type": "Point", "coordinates": [36.64654948758612, -45.008111187821235]}}]}